[{"OBJECT_NAME":"SPIP","OBJECT_ID":"2023-174AU","EPOCH":"2026-03-09T22:52:46.383168","MEAN_MOTION":15.26695413,"ECCENTRICITY":0.00100427,"INCLINATION":97.3901,"RA_OF_ASC_NODE":146.4534,"ARG_OF_PERICENTER":168.1112,"MEAN_ANOMALY":192.0366,"EPHEMERIS_TYPE":0,"CLASSIFICATION_TYPE":"U","NORAD_CAT_ID":58298,"ELEMENT_SET_NO":999,"REV_AT_EPOCH":12963,"BSTAR":0.00025731582,"MEAN_MOTION_DOT":6.692e-5,"MEAN_MOTION_DDOT":0},{"OBJECT_NAME":"STARLINK-35770","OBJECT_ID":"2025-288U","EPOCH":"2026-03-09T22:37:22.412064","MEAN_MOTION":15.27582343,"ECCENTRICITY":0.00015391,"INCLINATION":43.0014,"RA_OF_ASC_NODE":22.235,"ARG_OF_PERICENTER":249.4782,"MEAN_ANOMALY":110.5905,"EPHEMERIS_TYPE":0,"CLASSIFICATION_TYPE":"U","NORAD_CAT_ID":66977,"ELEMENT_SET_NO":999,"REV_AT_EPOCH":1532,"BSTAR":0.00085927539,"MEAN_MOTION_DOT":0.0002346,"MEAN_MOTION_DDOT":0}]
